0 FENGYUN 1C DEB
1 29996U 99025LW  13282.12712498  .00002218  00000-0  16998-2 0   685
2 29996 099.1471 227.0130 0160180 326.8682 149.9320 13.88526122340759
0 FENGYUN 1C DEB
1 29996U 99025LW  13285.86374104  .00002115  00000-0  16221-2 0   705
2 29996 099.1465 230.6790 0159940 316.8412 108.1478 13.88541430341274
0 FENGYUN 1C DEB
1 29996U 99025LW  13287.80652499  .00002859  00000-0  21813-2 0   716
2 29996 099.1470 232.5854 0159758 311.5950 099.6685 13.88550573341540
0 FENGYUN 1C DEB
1 29996U 99025LW  13288.81539103  .00002600  00000-0  19864-2 0   722
2 29996 099.1472 233.5755 0159617 308.8853 102.7670 13.88556652341687
0 FENGYUN 1C DEB
1 29996U 99025LW  13289.82423619  .00002917  00000-0  22253-2 0   736
2 29996 099.1476 234.5654 0159467 306.1665 105.7899 13.88561515341821
0 FENGYUN 1C DEB
1 29996U 99025LW  13291.42400225  .00002847  00000-0  21733-2 0   748
2 29996 099.1480 236.1352 0159196 301.8731 182.7344 13.88569687342047
0 FENGYUN 1C DEB
1 29996U 99025LW  13292.43184860  .00002880  00000-0  21980-2 0   756
2 29996 099.1485 237.1246 0159088 299.1523 180.8188 13.88575253342189
0 FENGYUN 1C DEB
1 29996U 99025LW  13293.50105685  .00002958  00000-0  22563-2 0   768
2 29996 099.1487 238.1740 0158991 296.2542 125.6773 13.88581597342334
0 FENGYUN 1C DEB
1 29996U 99025LW  13294.79758338  .00002942  00000-0  22446-2 0   773
2 29996 099.1485 239.4469 0158842 292.7598 126.8846 13.88588916342517
0 FENGYUN 1C DEB
1 29996U 99025LW  13295.80481600  .00002834  00000-0  21634-2 0   780
2 29996 099.1482 240.4357 0158722 290.0335 121.9761 13.88593204342652
